OBJECT_NAME,OBJECT_ID,EPOCH,MEAN_MOTION,ECCENTRICITY,INCLINATION,RA_OF_ASC_NODE,ARG_OF_PERICENTER,MEAN_ANOMALY,EPHEMERIS_TYPE,CLASSIFICATION_TYPE,NORAD_CAT_ID,ELEMENT_SET_NO,REV_AT_EPOCH,BSTAR,MEAN_MOTION_DOT,MEAN_MOTION_DDOT
ZHONGXING-2E,2021-071A,2026-06-20T09:52:13.328832,1.00272973,.0001673,0.0209,225.1100,266.6751,22.9587,0,U,49062,999,1807,0,-.296E-5,0
TJS-7,2021-077A,2026-06-21T15:43:58.930752,1.00277933,.0003566,0.3427,264.9653,117.0822,24.2691,0,U,49115,999,959,0,-.125E-5,0
CHINASAT 9B,2021-080A,2026-06-21T13:15:56.462112,1.00273166,.0002119,0.0330,262.4533,209.8830,97.7954,0,U,49125,999,1769,0,-.314E-5,0
SHIJIAN-21 (SJ-21),2021-094A,2026-06-20T11:47:27.888864,1.00269328,.0049654,5.1217,61.1679,168.2525,344.1673,0,U,49330,999,539,0,-.353E-5,0
SES-17,2021-095A,2026-06-18T14:18:52.046208,1.00269036,.00008114,0.0267,40.8266,45.0665,328.5524,0,U,49332,999,1786,0,-.278E-5,0
SYRACUSE 4A,2021-095B,2026-06-19T06:14:56.927040,1.00268750,.00016356,0.0178,11.5381,69.1185,326.0593,0,U,49333,999,1796,0,.129E-5,0
QZS-1R (MICHIBIKI-1R),2021-096A,2026-06-19T15:10:55.566912,1.00254705,.07548004,37.4674,79.5460,271.8525,278.0167,0,U,49336,999,1703,0,-.29E-5,0
ZHONGXING-1D,2021-114A,2026-06-21T21:57:29.462976,1.00275060,.0000282,0.0408,166.9763,28.8668,173.7879,0,U,49505,999,1686,0,-.336E-5,0
STPSAT-6,2021-118A,2026-06-20T10:42:38.884032,1.00269666,.0001185,0.3304,85.3568,256.6364,335.6712,0,U,49817,999,1660,0,-.5E-6,0
EXPRESS AMU-7,2021-123A,2026-06-21T22:01:44.056992,1.00272286,.0000038,0.0163,288.9404,247.1321,209.4669,0,U,50001,999,1658,0,-.242E-5,0
EXPRESS AMU-3,2021-123B,2026-06-20T23:11:44.489760,1.00269559,.00004,0.0209,335.7514,303.9567,80.2873,0,U,50002,999,707,0,0,0
TIANLIAN 2-02,2021-124A,2026-06-21T20:26:22.774272,1.00281719,.0001195,0.8148,86.0573,167.1157,134.4235,0,U,50005,999,1666,0,-.13E-6,0
TURKSAT 5B,2021-126A,2026-06-19T02:48:36.163008,1.00271147,.00032341,0.0673,343.7991,12.4246,355.2631,0,U,50212,999,1631,0,.14E-5,0
INMARSAT 6-F1,2021-128A,2026-06-18T20:09:55.247328,1.00270212,.0000303,0.0186,327.5438,244.7765,80.9907,0,U,50319,999,1627,0,-.178E-5,0
TJS-9,2021-135A,2026-06-21T21:59:29.272128,1.00273470,.0003758,0.0357,216.6604,199.1550,321.3825,0,U,50574,999,1647,0,-.298E-5,0
USA 324,2022-006A,2026-06-06T02:06:38.886912,1.00289779,.000284,0.7690,83.2777,165.6787,110.1567,0,U,51280,999,1602,0,-.58E-6,0
GOES 18,2022-021A,2026-06-19T22:29:21.715296,1.00271950,.00004251,0.0372,171.7340,325.4670,331.2805,0,U,51850,999,662,0,.91E-6,0
ZHONGXING-6D,2022-038A,2026-06-20T21:43:48.403776,1.00268056,.0000421,0.0102,344.3774,120.1595,255.4678,0,U,52255,999,1546,0,0,0
NILESAT 301,2022-061A,2026-06-20T09:22:27.592896,1.00271181,.0004675,0.0507,20.7867,36.9855,344.4364,0,U,52817,999,1476,0,-.62E-6,0
CMS-02 (GSAT-24),2022-067A,2026-06-20T09:48:13.713120,1.00271954,.0001803,0.0494,253.6008,114.3593,130.7262,0,U,52903,999,1464,0,-.169E-5,0
MEASAT 3D,2022-067B,2026-06-20T09:50:35.986272,1.00271559,.0001345,0.0265,352.1472,25.8731,129.7490,0,U,52904,999,1468,0,-.246E-5,0
SES-22,2022-071A,2026-06-20T08:44:52.380096,1.00272735,.0001394,0.0091,34.4553,43.1756,183.1477,0,U,52933,999,755,0,.1E-5,0
WFOV (USA 332),2022-073A,2026-06-20T10:42:20.562048,1.00273601,.0002017,3.7203,78.4896,255.7442,214.2717,0,U,52940,999,1440,0,-.367E-5,0
TIANLIAN 2-03,2022-078A,2026-06-20T06:02:12.782112,1.00271393,.0001322,0.6787,77.0936,333.4102,319.0912,0,U,53100,999,1457,0,.67E-6,0
SBIRS GEO-6 (USA 336),2022-092A,2026-06-20T11:09:54.844704,1.00270925,.0001883,3.2514,317.5627,121.1257,136.4655,0,U,53355,999,1426,0,-.297E-5,0
EUTELSAT KONNECT VHTS,2022-110A,2026-06-20T00:51:54.181728,1.00272019,.00023652,0.0641,99.9422,345.5386,198.4343,0,U,53765,999,686,0,.12E-6,0
ZHONGXING-1E,2022-112A,2026-06-21T13:10:13.677888,1.00272232,.0000561,0.0421,183.4778,137.9279,227.3046,0,U,53813,999,1389,0,-.151E-5,0
SES-20,2022-123A,2026-06-19T20:56:24.158112,1.00271156,.00018191,0.0296,69.4323,12.2949,37.3554,0,U,53960,999,1356,0,-.106E-5,0
SES-21,2022-123B,2026-06-20T09:28:38.667936,1.00268958,.0001006,0.0398,21.6419,72.4818,185.7194,0,U,53961,999,724,0,0,0
