[
  {
    "name": "EUTELSAT KONNECT VHTS",
    "line1": "1 53765U 22110A   26171.03604377  .00000012  00000+0  00000+0 0  9990",
    "line2": "2 53765   0.0641  99.9422 0002365 345.5386 198.4343  1.00272019  6868"
  },
  {
    "name": "ZHONGXING-2E",
    "line1": "1 49062U 21071A   26171.41126538 -.00000296  00000+0  00000+0 0  9995",
    "line2": "2 49062   0.0209 225.1100 0001673 266.6751  22.9587  1.00272973 18075"
  },
  {
    "name": "TJS-7",
    "line1": "1 49115U 21077A   26172.65554318 -.00000125  00000+0  00000+0 0  9999",
    "line2": "2 49115   0.3427 264.9653 0003566 117.0822  24.2691  1.00277933  9593"
  },
  {
    "name": "CHINASAT 9B",
    "line1": "1 49125U 21080A   26172.55273683 -.00000314  00000+0  00000+0 0  9996",
    "line2": "2 49125   0.0330 262.4533 0002119 209.8830  97.7954  1.00273166 17697"
  },
  {
    "name": "SHIJIAN-21 (SJ-21)",
    "line1": "1 49330U 21094A   26171.49129501 -.00000353  00000+0  00000+0 0  9993",
    "line2": "2 49330   5.1217  61.1679 0049654 168.2525 344.1673  1.00269328  5390"
  },
  {
    "name": "SES-17",
    "line1": "1 49332U 21095A   26169.59643572 -.00000278  00000+0  00000+0 0  9999",
    "line2": "2 49332   0.0267  40.8266 0000811  45.0665 328.5524  1.00269036 17868"
  },
  {
    "name": "SYRACUSE 4A",
    "line1": "1 49333U 21095B   26170.26038110  .00000129  00000+0  00000+0 0  9996",
    "line2": "2 49333   0.0178  11.5381 0001635  69.1185 326.0593  1.00268750 17964"
  },
  {
    "name": "QZS-1R (MICHIBIKI-1R)",
    "line1": "1 49336U 21096A   26170.63258758 -.00000290  00000+0  00000+0 0  9993",
    "line2": "2 49336  37.4674  79.5460 0754800 271.8525 278.0167  1.00254705 17039"
  },
  {
    "name": "ZHONGXING-1D",
    "line1": "1 49505U 21114A   26172.91492434 -.00000336  00000+0  00000+0 0  9997",
    "line2": "2 49505   0.0408 166.9763 0000282  28.8668 173.7879  1.00275060 16869"
  },
  {
    "name": "STPSAT-6",
    "line1": "1 49817U 21118A   26171.44628338 -.00000050  00000+0  00000+0 0  9991",
    "line2": "2 49817   0.3304  85.3568 0001185 256.6364 335.6712  1.00269666 16609"
  },
  {
    "name": "EXPRESS AMU-7",
    "line1": "1 50001U 21123A   26172.91787103 -.00000242  00000+0  00000+0 0  9996",
    "line2": "2 50001   0.0163 288.9404 0000038 247.1321 209.4669  1.00272286 16588"
  },
  {
    "name": "EXPRESS AMU-3",
    "line1": "1 50002U 21123B   26171.96648715  .00000000  00000+0  00000+0 0  9997",
    "line2": "2 50002   0.0209 335.7514 0000400 303.9567  80.2873  1.00269559  7074"
  },
  {
    "name": "TIANLIAN 2-02",
    "line1": "1 50005U 21124A   26172.85165248 -.00000013  00000+0  00000+0 0  9990",
    "line2": "2 50005   0.8148  86.0573 0001195 167.1157 134.4235  1.00281719 16666"
  },
  {
    "name": "TURKSAT 5B",
    "line1": "1 50212U 21126A   26170.11708522  .00000140  00000+0  00000+0 0  9997",
    "line2": "2 50212   0.0673 343.7991 0003234  12.4246 355.2631  1.00271147 16314"
  },
  {
    "name": "INMARSAT 6-F1",
    "line1": "1 50319U 21128A   26169.84022277 -.00000178  00000+0  00000+0 0  9993",
    "line2": "2 50319   0.0186 327.5438 0000303 244.7765  80.9907  1.00270212 16272"
  },
  {
    "name": "TJS-9",
    "line1": "1 50574U 21135A   26172.91631102 -.00000298  00000+0  00000+0 0  9992",
    "line2": "2 50574   0.0357 216.6604 0003758 199.1550 321.3825  1.00273470 16472"
  },
  {
    "name": "USA 324",
    "line1": "1 51280U 22006A   26157.08795008 -.00000058  00000+0  00000+0 0  9996",
    "line2": "2 51280   0.7690  83.2777 0002840 165.6787 110.1567  1.00289779 16021"
  },
  {
    "name": "GOES 18",
    "line1": "1 51850U 22021A   26170.93705689  .00000091  00000+0  00000+0 0  9997",
    "line2": "2 51850   0.0372 171.7340 0000425 325.4670 331.2805  1.00271950  6625"
  },
  {
    "name": "ZHONGXING-6D",
    "line1": "1 52255U 22038A   26171.90542134  .00000000  00000+0  00000+0 0  9997",
    "line2": "2 52255   0.0102 344.3774 0000421 120.1595 255.4678  1.00268056 15467"
  },
  {
    "name": "NILESAT 301",
    "line1": "1 52817U 22061A   26171.39059714 -.00000062  00000+0  00000+0 0  9996",
    "line2": "2 52817   0.0507  20.7867 0004675  36.9855 344.4364  1.00271181 14762"
  },
  {
    "name": "CMS-02 (GSAT-24)",
    "line1": "1 52903U 22067A   26171.40849205 -.00000169  00000+0  00000+0 0  9990",
    "line2": "2 52903   0.0494 253.6008 0001803 114.3593 130.7262  1.00271954 14645"
  },
  {
    "name": "MEASAT 3D",
    "line1": "1 52904U 22067B   26171.41013873 -.00000246  00000+0  00000+0 0  9992",
    "line2": "2 52904   0.0265 352.1472 0001345  25.8731 129.7490  1.00271559 14689"
  },
  {
    "name": "SES-22",
    "line1": "1 52933U 22071A   26171.36449514  .00000100  00000+0  00000+0 0  9996",
    "line2": "2 52933   0.0091  34.4553 0001394  43.1756 183.1477  1.00272735  7556"
  },
  {
    "name": "WFOV (USA 332)",
    "line1": "1 52940U 22073A   26171.44607132 -.00000367  00000+0  00000+0 0  9993",
    "line2": "2 52940   3.7203  78.4896 0002017 255.7442 214.2717  1.00273601 14401"
  },
  {
    "name": "TIANLIAN 2-03",
    "line1": "1 53100U 22078A   26171.25153683  .00000067  00000+0  00000+0 0  9999",
    "line2": "2 53100   0.6787  77.0936 0001322 333.4102 319.0912  1.00271393 14573"
  },
  {
    "name": "SBIRS GEO-6 (USA 336)",
    "line1": "1 53355U 22092A   26171.46521811 -.00000297  00000+0  00000+0 0  9998",
    "line2": "2 53355   3.2514 317.5627 0001883 121.1257 136.4655  1.00270925 14267"
  },
  {
    "name": "ZHONGXING-1E",
    "line1": "1 53813U 22112A   26172.54876942 -.00000151  00000+0  00000+0 0  9997",
    "line2": "2 53813   0.0421 183.4778 0000561 137.9279 227.3046  1.00272232 13891"
  },
  {
    "name": "SES-20",
    "line1": "1 53960U 22123A   26170.87250183 -.00000106  00000+0  00000+0 0  9999",
    "line2": "2 53960   0.0296  69.4323 0001819  12.2949  37.3554  1.00271156 13560"
  },
  {
    "name": "SES-21",
    "line1": "1 53961U 22123B   26171.39489199  .00000000  00000+0  00000+0 0  9991",
    "line2": "2 53961   0.0398  21.6419 0001006  72.4818 185.7194  1.00268958  7243"
  }
]